satname,norad_id,inclination_deg,eccentricity,mean_motion_rev_per_day,perigee_km,apogee_km,l1,l2
STARLINK-1319,45379,53.0545,0.0002125,15.3720403,452.9298331637174,455.83365362966015,1 45379U 20019V   25315.33336806  .00083825  00000+0  22528-2 0  9994,2 45379  53.0545 335.7506 0002125  65.7055  62.9197 15.37204030  5755
STARLINK-1266,45383,53.0559,0.0001732,15.06396881,546.021645214646,548.4205892664586,1 45383U 20019Z   25315.25360602  .00001351  00000+0  10961-3 0  9994,2 45383  53.0559 318.3027 0001732  93.2659 266.8529 15.06396881312150
STARLINK-1267,45384,53.0558,0.0001578,15.06405079,546.1031740324534,548.2888091245959,1 45384U 20019AA  25315.23895744  .00009233  00000+0  63781-3 0  9998,2 45384  53.0558 319.0270 0001578  85.8832 274.2337 15.06405079312145
STARLINK-1272,45386,53.0535,0.0004893,15.35393203,456.4070435170388,463.0986024978338,1 45386U 20019AC  25315.24220629  .00111655  00000+0  31643-2 0  9998,2 45386  53.0535 314.0976 0004893  44.8274 315.3122 15.35393203312212
STARLINK-1274,45387,53.0365,0.0003188,15.30462798,472.24591571991004,476.61511276699184,1 45387U 20019AD  25315.23962647  .00098577  00000+0  32694-2 0  9995,2 45387  53.0365 301.8451 0003188 338.7937  21.2929 15.30462798312380
STARLINK-1280,45388,53.0542,0.0004849,15.41136845,439.44544386753114,446.06034288612864,1 45388U 20019AE  25315.27706175  .00108237  00000+0  25461-2 0  9991,2 45388  53.0542 332.9968 0004849  26.7742 333.3512 15.41136845311948
STARLINK-1283,45389,53.054,0.0006238,15.31805282,466.154039330243,474.6983067449255,1 45389U 20019AF  25315.23717637  .00102863  00000+0  32687-2 0  9990,2 45389  53.0540 312.9828 0006238  41.4775 318.6698 15.31805282312235
STARLINK-1284,45390,53.0545,0.0001232,15.06393005,546.3797911051806,548.086202272365,1 45390U 20019AG  25315.25728944  .00000473  00000+0  50644-4 0  9996,2 45390  53.0545 318.2846 0001232  93.1740 266.9390 15.06393005312158
STARLINK-1292,45394,53.0402,0.0004456,16.08864682,247.00611887327977,252.9130785620573,1 45394U 20019AL  25315.88384600  .00856847  41355-3  95821-3 0  9997,2 45394  53.0402 257.7879 0004456  94.9124 265.2418 16.08864682312793
STARLINK-1297,45395,53.0553,0.0001523,15.06378231,546.2235368446609,548.3330183382159,1 45395U 20019AM  25315.29414163 -.00008269  00000+0 -53717-3 0  9996,2 45395  53.0553 318.1163 0001523  74.7778 285.3379 15.06378231311348
STARLINK-1307,45397,53.0557,0.0001832,15.0640456,545.9288609348268,548.4663035257563,1 45397U 20019AP  25315.28678253 -.00001038  00000+0 -50780-4 0  9994,2 45397  53.0557 318.1497 0001832  87.1916 272.9282 15.06404560311989
STARLINK-1255,45399,53.05,0.0004194,15.31893388,467.29139904609565,473.03575356950296,1 45399U 20019AR  25315.24554592  .00112596  00000+0  35634-2 0  9990,2 45399  53.0500 304.0260 0004194  58.9738 301.1673 15.31893388312161
STARLINK-1260,45404,53.0545,0.0001427,15.06419533,546.1634540569648,548.1399314498776,1 45404U 20019AW  25315.28771336  .00014609  00000+0  99709-3 0  9998,2 45404  53.0545 308.1433 0001427  89.1403 270.9749 15.06419533312014
STARLINK-1263,45405,53.0556,0.0001319,15.06393437,546.3182165331382,548.145128788985,1 45405U 20019AX  25315.27295531  .00001276  00000+0  10455-3 0  9993,2 45405  53.0556 308.2128 0001319  92.8741 267.2399 15.06393437312019
STARLINK-1265,45406,53.0549,0.0001358,15.06402674,546.2629013042961,548.1438237467582,1 45406U 20019AY  25315.21397903  .00002158  00000+0  16373-3 0  9999,2 45406  53.0549 308.4778 0001358  79.3345 280.7797 15.06402674312003
STARLINK-1278,45408,53.0541,0.000432,15.34635053,459.0497611132896,464.9596435441008,1 45408U 20019BA  25315.30121166  .00097955  00000+0  28506-2 0  9996,2 45408  53.0541 333.8146 0004320  26.5586 333.5636 15.34635053311661
STARLINK-1296,45412,53.0548,0.0001525,15.06407749,546.131696437853,548.2439205044375,1 45412U 20019BE  25315.21768290  .00008768  00000+0  60668-3 0  9996,2 45412  53.0548 308.4602 0001525  92.0020 268.1144 15.06407749312007
STARLINK-1298,45413,53.0481,0.0008838,15.54476208,397.6818895703036,409.6694216203341,1 45413U 20019BF  25315.18793196  .00049521  00000+0  74105-3 0  9999,2 45413  53.0481 281.1274 0008838   0.3280 359.7734 15.54476208312483
STARLINK-1309,45414,53.0547,0.0001397,15.0641588,546.1954240585492,548.1303528473827,1 45414U 20019BG  25315.29874381  .00006258  00000+0  43846-3 0  9996,2 45414  53.0547 308.0975 0001397  85.5019 274.6130 15.06415880312001
STARLINK-1316,45415,53.0553,0.0001303,15.06399046,546.3121085143384,548.1168551104984,1 45415U 20019BH  25315.25821006  .00001766  00000+0  13745-3 0  9993,2 45415  53.0553 308.2766 0001303  79.5050 280.6086 15.06399046312039
STARLINK-1318,45416,53.0501,0.0005734,15.61643498,379.0325122472668,386.786080139741,1 45416U 20019BJ  25315.12448063  .00061618  00000+0  70287-3 0  9994,2 45416  53.0501 272.3993 0005734  71.4933 288.6703 15.61643498312510
STARLINK-1286,45417,53.0548,0.0002518,15.36920439,453.50156398770923,456.9428436827602,1 45417U 20019BK  25315.25926206  .00108083  00000+0  29190-2 0  9993,2 45417  53.0548 334.3714 0002518  39.3931 320.7254 15.36920439311928
STARLINK-1308,45419,53.0552,0.0001567,15.06409364,546.0976611537353,548.2680563974754,1 45419U 20019BM  25315.29229787  .00001807  00000+0  14013-3 0  9994,2 45419  53.0552 338.1228 0001567 111.0965 249.0192 15.06409364311622
STARLINK-1329,45531,53.0549,0.0001249,15.06391042,546.374033590112,548.103992518174,1 45531U 20025A   25315.19463676  .00001355  00000+0  10987-3 0  9996,2 45531  53.0549 278.5641 0001249  91.2996 268.8136 15.06391042307231
STARLINK-1338,45532,53.055,0.0001324,15.06392771,546.3167947881957,548.1506329532294,1 45532U 20025B   25315.27203536  .00000384  00000+0  44664-4 0  9994,2 45532  53.0550 278.2140 0001324  83.8992 276.2148 15.06392771307249
STARLINK-1350,45535,53.0727,0.0002188,15.32631311,466.46728433166027,469.463138659411,1 45535U 20025E   25315.18096705  .00018281  00000+0  58225-3 0  9997,2 45535  53.0727 228.2699 0002188  80.4838 279.6410 15.32631311307966
STARLINK-1362,45538,53.0551,0.0001429,15.06395452,546.2358626375026,548.215131239127,1 45538U 20025H   25315.17153892  .00001294  00000+0  10578-3 0  9995,2 45538  53.0551 278.3835 0001429  99.4262 260.6889 15.06395452307234
STARLINK-1368,45540,53.055,0.0001417,15.06399293,546.2324025945954,548.1950469900012,1 45540U 20025K   25315.17619911  .00001278  00000+0  10465-3 0  9994,2 45540  53.0550 278.6446 0001417  97.5208 262.5942 15.06399293307220
STARLINK-1371,45542,53.0543,0.000141,15.06394742,546.2511965789681,548.2041494167524,1 45542U 20025M   25315.27940612  .00001079  00000+0  91334-4 0  9996,2 45542  53.0543 278.1807 0001410  92.5253 267.5898 15.06394742307249
STARLINK-1372,45543,53.0543,0.0001318,15.06409959,546.2682782887541,548.0937921228342,1 45543U 20025N   25315.18358654  .00010589  00000+0  72852-3 0  9995,2 45543  53.0543 278.6125 0001318  85.0175 275.0964 15.06409959306328
STARLINK-1373,45544,53.0553,0.0001385,15.06399104,546.25514289498,548.1734652062032,1 45544U 20025P   25315.26834560  .00002746  00000+0  20314-3 0  9992,2 45544  53.0553 278.2324 0001385 103.0894 257.0250 15.06399104307240
STARLINK-1294,45551,53.047,0.0007574,15.61587694,377.9494293492644,388.1913062700214,1 45551U 20025W   25315.12595400  .00086186  00000+0  97934-3 0  9994,2 45551  53.0470 207.8969 0007574  91.5214 268.6667 15.61587694308225
STARLINK-1325,45554,53.0536,0.0002324,15.64684907,372.5758840111139,375.71434473787485,1 45554U 20025Z   25315.33336806  .00172848  00000+0  17181-2 0  9999,2 45554  53.0536 199.6738 0002324 180.6928 163.5117 15.64684907  5790
STARLINK-1327,45555,53.0538,0.0001616,15.0640423,546.0794593959163,548.3177278597759,1 45555U 20025AA  25315.24071902  .00005542  00000+0  39063-3 0  9993,2 45555  53.0538 258.3554 0001616  92.3000 267.8174 15.06404230307516
STARLINK-1356,45564,53.0544,0.0001421,15.06401248,546.2236415141033,548.1918244872222,1 45564U 20025AK  25315.24440011  .00009557  00000+0  65959-3 0  9997,2 45564  53.0544 258.3379 0001421  85.8131 274.3020 15.06401248307513
STARLINK-1357,45565,53.0605,0.0009008,15.34340403,456.71799232754256,469.04276924076294,1 45565U 20025AL  25315.21261222  .00075732  00000+0  22317-2 0  9998,2 45565  53.0605 241.5134 0009008  50.7663 309.4137 15.34340403307756
STARLINK-1361,45567,53.054,0.0001565,15.06398213,546.1332169348634,548.3008527477687,1 45567U 20025AN  25315.13012464  .00001677  00000+0  13147-3 0  9992,2 45567  53.0540 258.8477 0001565  92.9720 267.1448 15.06398213307508
STARLINK-1363,45568,53.053,0.0005092,15.4361671,431.97615475411476,438.91510730555456,1 45568U 20025AP  25315.33336806  .00144242  00000+0  31054-2 0  9996,2 45568  53.0530 252.8351 0005092 101.1323  59.6573 15.43616710  5766
STARLINK-1366,45569,53.0526,0.0004975,15.42060815,436.63596281858554,443.42003699349334,1 45569U 20025AQ  25315.20994311  .00148262  00000+0  33610-2 0  9990,2 45569  53.0526 252.9712 0004975  92.0123 268.1451 15.42060815307584
STARLINK-1376,45570,53.0549,0.0001454,15.06391944,546.2292992576995,548.2431977983724,1 45570U 20025AR  25315.12643762  .00000914  00000+0  80243-4 0  9991,2 45570  53.0549 258.8706 0001454  92.1402 267.9754 15.06391944307492
STARLINK-1320,45572,53.0562,0.0010047,15.44422766,426.23146386698954,439.91791263335926,1 45572U 20025AT  25315.07997865  .00064157  00000+0  13613-2 0  9997,2 45572  53.0562 199.6601 0010047  63.4913 296.7122 15.44422766308344
STARLINK-1321,45573,53.0545,0.0001296,15.06408799,546.2870687237164,548.0821120799474,1 45573U 20025AU  25315.24531610  .00007779  00000+0  54039-3 0  9994,2 45573  53.0545 248.3368 0001296  90.2671 269.8467 15.06408799307354
STARLINK-1328,45576,53.0496,0.0011293,15.7256282,343.97555142707915,359.1752798890848,1 45576U 20025AX  25315.33336806  .00126449  00000+0  91318-3 0  9994,2 45576  53.0496 219.3122 0011293  80.9781 234.1343 15.72562820  5929
